1 43901U 18111AB  21354.49163225  .00024855  00000-0  83518-3 0  9998
2 43901  97.2143 244.5367 0019098 353.3173   6.7811 15.30643747166150
1 43901U 18111AB  21354.68775484  .00021881  00000-0  73573-3 0  9991
2 43901  97.2143 244.7273 0019070 352.6260   7.4698 15.30649022166183
1 43901U 18111AB  21355.60297811  .00019311  00000-0  64912-3 0  9999
2 43901  97.2141 245.6172 0018923 349.3445  10.7392 15.30686928166323
1 43901U 18111AB  21355.66835040  .00018944  00000-0  63683-3 0  9992
2 43901  97.2141 245.6808 0018913 349.0992  10.9837 15.30689320166338
1 43901U 18111AB  21356.45280730  .00020898  00000-0  70137-3 0  9993
2 43901  97.2138 246.4436 0018741 346.2951  13.7779 15.30724288166455
1 43901U 18111AB  21356.64891891  .00022726  00000-0  76209-3 0  9998
2 43901  97.2136 246.6343 0018711 345.6440  14.4267 15.30734801166480
1 43901U 18111AB  21357.17187703  .00020250  00000-0  67911-3 0  9997
2 43901  97.2136 247.1425 0018566 343.7342  16.3301 15.30757986166563
1 43901U 18111AB  21357.49872190  .00022275  00000-0  74625-3 0  9992
2 43901  97.2135 247.4607 0018547 342.7187  17.3421 15.30773332166615
1 43901U 18111AB  21357.69482750  .00020432  00000-0  68471-3 0  9998
2 43901  97.2134 247.6514 0018525 341.9981  18.0602 15.30780951166649
1 43901U 18111AB  21358.47923870  .00020427  00000-0  68393-3 0  9995
2 43901  97.2132 248.4142 0018360 339.1386  20.9104 15.30812849166762
1 43901U 18111AB  21358.60997259  .00020319  00000-0  68023-3 0  9992
2 43901  97.2132 248.5413 0018359 338.6428  21.4045 15.30817786166780
1 43901U 18111AB  21358.67533942  .00020405  00000-0  68306-3 0  9994
2 43901  97.2131 248.6049 0018351 338.4777  21.5691 15.30820450166793
1 43901U 18111AB  21359.59046330  .00020405  00000-0  68238-3 0  9990
2 43901  97.2132 249.4946 0018227 335.0599  24.9760 15.30855121166939
1 43901U 18111AB  21359.65582843  .00020518  00000-0  68608-3 0  9997
2 43901  97.2132 249.5581 0018218 334.8176  25.2175 15.30857979166941
1 43901U 18111AB  21360.24411023  .00018717  00000-0  62583-3 0  9999
2 43901  97.2132 250.1302 0018130 332.6371  27.3913 15.30878641167039
1 43901U 18111AB  21360.63629358  .00017368  00000-0  58080-3 0  9992
2 43901  97.2134 250.5116 0018073 331.2296  28.7948 15.30892118167099
1 43901U 18111AB  21361.15919856  .00016320  00000-0  54567-3 0  9998
2 43901  97.2134 251.0201 0017996 329.2927  30.7260 15.30910819167179
1 43901U 18111AB  21361.48601139  .00017275  00000-0  57720-3 0  9990
2 43901  97.2135 251.3380 0017913 328.0819  31.9336 15.30923025167223
1 43901U 18111AB  21361.68209774  .00017534  00000-0  58567-3 0  9999
2 43901  97.2136 251.5287 0017897 327.3430  32.6704 15.30930627167250
1 43901U 18111AB  21362.59715508  .00020544  00000-0  68479-3 0  9995
2 43901  97.2137 252.4185 0017760 323.8750  36.1290 15.30967487167391
1 43901U 18111AB  21362.66251545  .00020828  00000-0  69412-3 0  9992
2 43901  97.2138 252.4820 0017767 323.7330  36.2706 15.30970728167405
1 43901U 18111AB  21363.25075427  .00018157  00000-0  60528-3 0  9992
2 43901  97.2139 253.0541 0017689 321.4624  38.5353 15.30990529167490
1 43901U 18111AB  21363.64290909  .00017993  00000-0  59960-3 0  9994
2 43901  97.2141 253.4354 0017633 319.9861  40.0080 15.31005001167558
1 43901U 18111AB  21364.49256534  .00017798  00000-0  59262-3 0  9992
2 43901  97.2144 254.2618 0017525 316.7296  43.2568 15.31035102167685
1 43901U 18111AB  21364.75399529  .00015369  00000-0  51215-3 0  9995
2 43901  97.2145 254.5161 0017514 315.8143  44.1699 15.31041069167720
1 43901U 18111AB  21365.60363418  .00011872  00000-0  39613-3 0  9991
2 43901  97.2146 255.3426 0017398 312.5347  47.4424 15.31061680167851
1 43901U 18111AB  22001.19183879  .00011966  00000-0  39907-3 0  9994
2 43901  97.2146 255.9148 0017350 310.2575  49.7149 15.31076561167947
1 43901U 18111AB  22001.64932725  .00014585  00000-0  48551-3 0  9991
2 43901  97.2147 256.3598 0017294 308.5181  51.4510 15.31091354168010
